LEMUR-2-AMANDA-SVANTE   
1 48269U 21034B   26068.77637527  .00030872  00000+0  11134-2 0  9996
2 48269  97.5829 144.8625 0002703 205.4721 154.6385 15.28469003265849
STARLINK-30376          
1 57782U 23134M   26068.38747880 -.00003295  00000+0 -11320-3 0  9999
2 57782  42.9998 195.9286 0001721 263.6896  96.3759 15.26735214139461
